0 COSMOS 2251 DEB
1 35883U 93036ATW 13283.80614731  .00000738  00000-0  21403-3 0  2203
2 35883 074.0246 093.2014 0093560 230.6899 190.4233 14.43717463228331
0 COSMOS 2251 DEB
1 35883U 93036ATW 13286.78605560  .00000946  00000-0  27217-3 0  2214
2 35883 074.0252 087.6566 0093429 224.4810 198.1057 14.43721289228762
0 COSMOS 2251 DEB
1 35883U 93036ATW 13290.73518638  .00001213  00000-0  34656-3 0  2227
2 35883 074.0261 080.3096 0093332 216.2205 203.3232 14.43731818229337
0 COSMOS 2251 DEB
1 35883U 93036ATW 13292.74548847  .00001405  00000-0  40016-3 0  2236
2 35883 074.0263 076.5697 0093244 212.0117 211.7277 14.43735379229621
0 COSMOS 2251 DEB
1 35883U 93036ATW 13296.08300988  .00001463  00000-0  41618-3 0  2243
2 35883 074.0268 070.3611 0093082 205.0863 278.2643 14.43745377230103
